SL-3 R/B                
1 19046U 88032B   19065.92033820  .00000610  00000-0  49704-4 0  9994
2 19046  97.4464 101.5529 0037768   0.5794 359.5468 15.02527279666609
SL-16 R/B               
1 19120U 88039B   19065.47188814 -.00000130  00000-0 -38872-4 0  9991
2 19120  71.0123  79.4851 0023845 302.7995  57.0833 14.19193342595383
COSMOS 1953             
1 19210U 88050A   19065.91184455  .00000093  00000-0  44488-5 0  9997
2 19210  82.5188 144.5431 0011902 277.7590  82.2286 15.05728329651157
SL-8 R/B                
1 19257U 88053B   19065.86259170  .00000046  00000-0  24213-4 0  9993
2 19257  74.0493 142.5623 0021520 239.6687 241.7698 14.37425710608956
COSMOS 1975             
1 19573U 88093A   19066.21239501  .00000249  00000-0  15637-4 0  9999
2 19573  82.5170  97.6339 0013201 325.5449  34.4920 15.04630335654238
SL-14 R/B               
1 19574U 88093B   19065.87205806  .00000075  00000-0  61854-5 0  9992
2 19574  82.5295 278.1903 0020964 203.4267 285.4574 14.83290521642499
SL-16 R/B               
1 19650U 88102B   19065.48792605 -.00000167  00000-0 -60577-4 0  9997
2 19650  71.0000 136.0408 0016372 302.8823  57.0724 14.15778303564782
INTERCOSMOS 24          
1 20261U 89080A   19066.22278503  .00000195  00000-0  48351-4 0  9997
2 20261  82.6065 323.2617 1203891  88.2554 285.5717 12.56051249344809
SL-14 R/B               
1 20262U 89080C   19065.37410993 -.00000010  00000-0 -36184-5 0  9994
2 20262  82.5991  14.3768 1235792 266.6597  79.2732 12.48913425340003
DELTA 1 R/B             
1 20323U 89089B   19066.56822301  .00000001  00000-0  96379-5 0  9993
2 20323  97.0792 283.2186 0070244 264.0799  95.2388 14.48291916545677
DELTA 2 R/B(1)          
1 20453U 90008B   19065.56237721  .00000754  00000-0  45511-4 0  9991
2 20453  35.6248 139.4374 0283860 353.0840   6.6004 14.84756142541452
COSMOS 2058             
1 20465U 90010A   19066.50974090  .00000306  00000-0  23703-4 0  9991
2 20465  82.4922   3.5666 0015037 344.1362  15.9388 14.97838644579381
SL-14 R/B               
1 20466U 90010B   19066.30980896  .00000076  00000-0  66050-5 0  9998
2 20466  82.5046 144.8756 0022044  76.6342 283.7328 14.81348361570486
SL-14 R/B               
1 20511U 90018B   19065.93607015  .00000047  00000-0  32061-5 0  9997
2 20511  82.5201  89.5070 0016662 210.0926 205.4082 14.80005144543818
HST                     
1 20580U 90037B   19065.67294063  .00000445  00000-0  16220-4 0  9990
2 20580  28.4686 179.7367 0002906  84.7808  50.2905 15.09182778385165
SL-16 R/B               
1 20625U 90046B   19066.54602366 -.00000098  00000-0 -26006-4 0  9995
2 20625  70.9965 270.3093 0016203 236.9923 122.9643 14.14636101486690
COSMOS 2084             
1 20663U 90055A   19065.97548268  .00000010  00000-0  19274-4 0  9994
2 20663  62.7933 292.2877 0091205 154.7957 205.7630 14.91946921553463
SL-6 R/B(2)             
1 20666U 90055D   19065.57323937 -.00000019  00000-0  16480-4 0  9993
2 20666  62.7854 211.0610 0057382 181.9841 178.1035 14.92219669554796
SL-8 R/B                
1 20775U 90078B   19066.50306698  .00002391  00000-0  11735-3 0  9999
2 20775  82.9241 252.0975 0578577 202.7909 154.6637 14.32965854438685
SL-8 R/B                
1 21088U 91006B   19066.55257083  .00000124  00000-0  11040-3 0  9998
2 21088  82.9388 273.0914 0022647   4.5910  50.2735 13.77111549412081
OKEAN-3                 
1 21397U 91039A   19066.52779618  .00000207  00000-0  17503-4 0  9990
2 21397  82.5188 261.4102 0016526 297.8181  62.1364 14.92772257503510
COSMOS 2151             
1 21422U 91042A   19065.96188421  .00000151  00000-0  12382-4 0  9994
2 21422  82.5031   8.9466 0014341   4.6302 355.5048 14.92026718502101
SL-14 R/B               
1 21423U 91042B   19066.53609091  .00000084  00000-0  80598-5 0  9990
2 21423  82.4911  94.2191 0017466 357.3636   2.7482 14.79756593495504
ERS-1                   
1 21574U 91050A   19066.46111916  .00000026  00000-0  23353-4 0  9993
2 21574  98.5385  16.3891 0031914 239.9356 119.8665 14.37683635447852
ARIANE 40 R/B           
1 21610U 91050F   19065.69157476 -.00000003  00000-0  13022-4 0  9997
2 21610  98.5208 133.0909 0002674 205.3359 306.8689 14.40864064450472
INTERCOSMOS 25          
1 21819U 91086A   19065.91281614  .00000110  00000-0  18459-4 0  9991
2 21819  82.5870  46.7657 1518232 190.2617 166.3873 12.04956182187857
SL-14 R/B               
1 21820U 91086B   19066.53840606  .00000137  00000-0  21034-4 0  9996
2 21820  82.5573 107.8104 1576756  42.2418 328.9846 11.93434678181730
SL-8 R/B                
1 21876U 92008B   19065.96952551  .00000040  00000-0  25332-4 0  9999
2 21876  82.9302  10.6161 0036210  81.9404 344.5917 13.75636283357465
SL-8 R/B                
1 21938U 92020B   19066.08556135  .00000145  00000-0  13579-3 0  9999
2 21938  82.9266 254.2898 0028121 239.1452 238.2652 13.75269732349599
SL-16 R/B               
1 22220U 92076B   19066.50289429  .00000184  00000-0  11659-3 0  9991
2 22220  71.0005 176.6431 0011659  26.7907  46.1743 14.16441868359740
SL-16 R/B               
1 22285U 92093B   19066.25788427 -.00000083  00000-0 -18191-4 0  9994
2 22285  71.0243 334.7254 0006568 257.7443 102.2944 14.15033668351382
COSMOS 2228             
1 22286U 92094A   19066.16837397  .00000194  00000-0  18380-4 0  9998
2 22286  82.5214 141.7620 0020945 192.1976 167.8738 14.88019952415872
SL-16 R/B               
1 22566U 93016B   19066.54196301 -.00000301  00000-0 -13099-3 0  9992
2 22566  71.0065 187.9486 0012733 259.3242 100.6447 14.14955317340153
COSMOS 2242             
1 22626U 93024A   19066.37044279  .00000169  00000-0  15743-4 0  9994
2 22626  82.5245 169.4974 0018814 190.8173 169.2643 14.87880640399555
SL-16 R/B               
1 22803U 93059B   19065.95807096 -.00000096  00000-0 -23935-4 0  9999
2 22803  70.9924   6.5517 0016293 156.9322 203.2537 14.16803786316940
ARIANE 40 R/B           
1 22830U 93061H   19065.90729217 -.00000042  00000-0  14852-5 0  9994
2 22830  98.8290 103.9953 0009912 251.5396 108.4709 14.31429737327793
COSMOS 2278             
1 23087U 94023A   19066.50127841 -.00000073  00000-0 -13468-4 0  9996
2 23087  71.0516 125.7503 0009770 323.0247  37.0201 14.13774961283301
SL-16 R/B               
1 23088U 94023B   19065.95832250  .00000082  00000-0  67207-4 0  9990
2 23088  71.0012  44.4450 0005339 245.0715 114.9852 14.14677725284052
SL-16 R/B               
1 23343U 94074B   19065.59526687  .00000023  00000-0  10759-4 0  9999
2 23343  98.0678 115.7706 0006174 209.2498 305.3785 14.76767349309214
SL-16 R/B               
1 23405U 94077B   19065.72460226  .00000094  00000-0  72790-4 0  9993
2 23405  70.9848 335.9962 0000439 105.3695 254.7477 14.15204145254042
ERS-2                   
1 23560U 95021A   19066.24747879  .00001061  00000-0  49842-4 0  9992
2 23560  98.5043 152.6072 0002936 350.0683  10.0491 15.22337642270891
ARIANE 40+ R/B          
1 23561U 95021B   19065.53950597  .00000024  00000-0  23165-4 0  9995
2 23561  98.7768  91.0478 0006667 194.2551 281.5047 14.37910612251408
SL-16 R/B               
1 23705U 95058B   19065.72683365 -.00000244  00000-0 -10112-3 0  9995
2 23705  71.0210 152.4023 0010438  56.1294 304.0820 14.15121705205966
SL-16 R/B               
1 24298U 96051B   19066.53697934 -.00000050  00000-0 -56761-6 0  9992
2 24298  70.8258 177.2850 0016809 316.9736  43.0068 14.12391239160548
ORBVIEW 2 (SEASTAR)     
1 24883U 97037A   19066.33513069  .00000015  00000-0  21361-4 0  9996
2 24883  98.5738 177.9709 0003209  65.2363 294.9155 14.33492415141902
SL-16 R/B               
1 25400U 98043G   19066.45379570 -.00000031  00000-0  52259-5 0  9990
2 25400  98.5637   7.2345 0008799 259.2333 100.7857 14.25438010 74571
SL-16 R/B               
1 25407U 98045B   19066.47585811 -.00000255  00000-0 -10562-3 0  9996
2 25407  71.0122 161.0825 0009311 316.1081  43.9301 14.15785499 65116
ISS (ZARYA)             
1 25544U 98067A   19066.60569674  .00001798  00000-0  35997-4 0  9997
2 25544  51.6421 146.2717 0004004  87.4084  62.1518 15.52787563159476
SL-8 R/B                
1 25723U 99022C   19065.95724073  .00008286  00000-0  92315-4 0  9997
2 25723  48.4148  36.0266 0007239 206.0760 153.9825 15.63647600104449
CZ-4B R/B               
1 25732U 99025C   19065.90554413 -.00000034  00000-0  56501-5 0  9996
2 25732  98.9846  85.2818 0038376 104.7650 306.6329 14.17660344 25571
OKEAN-O                 
1 25860U 99039A   19066.00045958  .00000012  00000-0  93595-5 0  9993
2 25860  98.2273  71.3535 0000799  79.0803 281.0496 14.76592922 56479
SL-16 R/B               
1 25861U 99039B   19065.55923870 -.00000004  00000-0  70320-5 0  9994
2 25861  98.1816  54.1534 0014756 220.4430 251.2399 14.78519204 58473
TERRA                   
1 25994U 99068A   19066.25645078  .00000785  00000-0  18420-3 0  9998
2 25994  98.2020 142.2889 0001190  64.1923 295.9416 14.57100347 22138
ENVISAT                 
1 27386U 02009A   19066.55523883 -.00000001  00000-0  13114-4 0  9994
2 27386  98.1593  92.8045 0001279  98.7429  14.8642 14.37942856891371
IDEFIX & ARIANE 42P R/B 
1 27422U 02021B   19066.53786632 -.00000028  00000-0  52744-5 0  9992
2 27422  98.2889  43.7546 0012336 169.3769 190.7677 14.29268308876436
AQUA                    
1 27424U 02022A   19066.20458991  .00000072  00000-0  26181-4 0  9996
2 27424  98.2245   8.6054 0002079  30.2248 315.8993 14.57107789895729
CZ-4B R/B               
1 27432U 02024C   19066.00366503 -.00000031  00000-0  73714-5 0  9993
2 27432  99.0629  55.8292 0051371  58.7663   9.4026 14.14076381867522
MIDORI II (ADEOS-II)    
1 27597U 02056A   19066.50191256  .00000025  00000-0  27481-4 0  9997
2 27597  98.4599  22.5192 0000417  31.1490 328.9716 14.27387280845057
H-2A R/B                
1 27601U 02056E   19065.86818698  .00000035  00000-0  28006-4 0  9992
2 27601  98.2906 119.0735 0071300 231.3436 220.0135 14.31881297847636
